[{"OBJECT_NAME":"YAOGAN-30 02A","OBJECT_ID":"2017-058A","EPOCH":"2026-03-09T22:50:50.758368","MEAN_MOTION":15.02502907,"ECCENTRICITY":0.0002444,"INCLINATION":34.9965,"RA_OF_ASC_NODE":274.2208,"ARG_OF_PERICENTER":338.504,"MEAN_ANOMALY":21.5565,"EPHEMERIS_TYPE":0,"CLASSIFICATION_TYPE":"U","NORAD_CAT_ID":42945,"ELEMENT_SET_NO":999,"REV_AT_EPOCH":46095,"BSTAR":0.00033405903,"MEAN_MOTION_DOT":4.5e-5,"MEAN_MOTION_DDOT":0},{"OBJECT_NAME":"STARLINK-5901","OBJECT_ID":"2023-042P","EPOCH":"2026-03-09T07:26:34.876032","MEAN_MOTION":15.02534235,"ECCENTRICITY":0.00011768,"INCLINATION":43.0037,"RA_OF_ASC_NODE":58.142,"ARG_OF_PERICENTER":271.1677,"MEAN_ANOMALY":88.903,"EPHEMERIS_TYPE":0,"CLASSIFICATION_TYPE":"U","NORAD_CAT_ID":55999,"ELEMENT_SET_NO":999,"REV_AT_EPOCH":16285,"BSTAR":9.787212e-6,"MEAN_MOTION_DOT":-7.1e-7,"MEAN_MOTION_DDOT":0}]
